{
  "links" : {
    "next" : "https://api.nasa.gov/neo/rest/v1/feed?start_date=2008-02-16&end_date=2008-02-16&detailed=true&api_key=t0TVs3DtDT2H8Oy2Zy8m2eVrNsAVKAexjcZXUckd",
    "prev" : "https://api.nasa.gov/neo/rest/v1/feed?start_date=2008-02-14&end_date=2008-02-14&detailed=true&api_key=t0TVs3DtDT2H8Oy2Zy8m2eVrNsAVKAexjcZXUckd",
    "self" : "https://api.nasa.gov/neo/rest/v1/feed?start_date=2008-02-15&end_date=2008-02-15&detailed=true&api_key=t0TVs3DtDT2H8Oy2Zy8m2eVrNsAVKAexjcZXUckd"
  },
  "element_count" : 11,
  "near_earth_objects" : {
    "2008-02-15" : [ {
      "links" : {
        "self" : "https://api.nasa.gov/neo/rest/v1/neo/3764727?api_key=t0TVs3DtDT2H8Oy2Zy8m2eVrNsAVKAexjcZXUckd"
      },
      "neo_reference_id" : "3764727",
      "name" : "(2016 WF7)",
      "nasa_jpl_url" : "http://ssd.jpl.nasa.gov/sbdb.cgi?sstr=3764727",
      "absolute_magnitude_h" : 28.8,
      "estimated_diameter" : {
        "kilometers" : {
          "estimated_diameter_min" : 0.0046190746,
          "estimated_diameter_max" : 0.0103285648
        },
        "meters" : {
          "estimated_diameter_min" : 4.6190746028,
          "estimated_diameter_max" : 10.328564805
        },
        "miles" : {
          "estimated_diameter_min" : 0.002870159,
          "estimated_diameter_max" : 0.0064178706
        },
        "feet" : {
          "estimated_diameter_min" : 15.1544447199,
          "estimated_diameter_max" : 33.886368555
        }
      },
      "is_potentially_hazardous_asteroid" : false,
      "close_approach_data" : [ {
        "close_approach_date" : "2008-02-15",
        "epoch_date_close_approach" : 1203062400000,
        "relative_velocity" : {
          "kilometers_per_second" : "5.3146087811",
          "kilometers_per_hour" : "19132.5916119258",
          "miles_per_hour" : "11888.2483824213"
        },
        "miss_distance" : {
          "astronomical" : "0.0470445075",
          "lunar" : "18.3003139496",
          "kilometers" : "7037758.5",
          "miles" : "4373060.5"
        },
        "orbiting_body" : "Earth"
      } ],
      "orbital_data" : {
        "orbit_id" : "6",
        "orbit_determination_date" : "2017-04-06 08:21:58",
        "orbit_uncertainty" : "7",
        "minimum_orbit_intersection" : ".0033147",
        "jupiter_tisserand_invariant" : "6.754",
        "epoch_osculation" : "2458000.5",
        "eccentricity" : ".2379077525515878",
        "semi_major_axis" : ".8732832979942745",
        "inclination" : ".6467351461787517",
        "ascending_node_longitude" : "76.2381764637944",
        "orbital_period" : "298.0788472742083",
        "perihelion_distance" : ".6655224312276181",
        "perihelion_argument" : "208.6318518983579",
        "aphelion_distance" : "1.081044164760931",
        "perihelion_time" : "2457918.713005080428",
        "mean_anomaly" : "98.7769458996879",
        "mean_motion" : "1.207734139111285",
        "equinox" : "J2000"
      }
    }, {
      "links" : {
        "self" : "https://api.nasa.gov/neo/rest/v1/neo/3780644?api_key=t0TVs3DtDT2H8Oy2Zy8m2eVrNsAVKAexjcZXUckd"
      },
      "neo_reference_id" : "3780644",
      "name" : "(2017 PV25)",
      "nasa_jpl_url" : "http://ssd.jpl.nasa.gov/sbdb.cgi?sstr=3780644",
      "absolute_magnitude_h" : 24.621,
      "estimated_diameter" : {
        "kilometers" : {
          "estimated_diameter_min" : 0.0316486345,
          "estimated_diameter_max" : 0.0707684981
        },
        "meters" : {
          "estimated_diameter_min" : 31.6486344821,
          "estimated_diameter_max" : 70.768498097
        },
        "miles" : {
          "estimated_diameter_min" : 0.0196655437,
          "estimated_diameter_max" : 0.0439734924
        },
        "feet" : {
          "estimated_diameter_min" : 103.8341059543,
          "estimated_diameter_max" : 232.1801192966
        }
      },
      "is_potentially_hazardous_asteroid" : false,
      "close_approach_data" : [ {
        "close_approach_date" : "2008-02-15",
        "epoch_date_close_approach" : 1203062400000,
        "relative_velocity" : {
          "kilometers_per_second" : "7.4927031821",
          "kilometers_per_hour" : "26973.7314554065",
          "miles_per_hour" : "16760.4277479441"
        },
        "miss_distance" : {
          "astronomical" : "0.0343110279",
          "lunar" : "13.3469896317",
          "kilometers" : "5132856.5",
          "miles" : "3189409.25"
        },
        "orbiting_body" : "Earth"
      } ],
      "orbital_data" : {
        "orbit_id" : "7",
        "orbit_determination_date" : "2017-08-24 06:19:14",
        "orbit_uncertainty" : "5",
        "minimum_orbit_intersection" : ".0108365",
        "jupiter_tisserand_invariant" : "5.764",
        "epoch_osculation" : "2458000.5",
        "eccentricity" : ".2295007480174262",
        "semi_major_axis" : "1.065372437706664",
        "inclination" : "1.873327442871676",
        "ascending_node_longitude" : "304.5236062093725",
        "orbital_period" : "401.6526274476078",
        "perihelion_distance" : ".8208686663358356",
        "perihelion_argument" : "115.8423021018517",
        "aphelion_distance" : "1.309876209077492",
        "perihelion_time" : "2458060.494863886667",
        "mean_anomaly" : "306.2267902081197",
        "mean_motion" : ".8962968879046084",
        "equinox" : "J2000"
      }
    } ]
  }
}